{"type": "FeatureCollection", "features": [ {"type": "Feature", "properties": {"norad_id": 29986, "name": "FENGYUN 1C DEB", "group": "fengyun-1c-debris", "lat": 10.225882882555045, "lon": -111.57290965197605, "alt_km": 810.2500222833669, "timestamp": "2025-12-24T03:53:29.920024+00:00", "meta": {"OBJECT_NAME": "FENGYUN 1C DEB", "OBJECT_ID": "1999-025LL", "EPOCH": "2025-12-22T04:10:58.154016", "MEAN_MOTION": 14.29284956, "ECCENTRICITY": 0.00229, "INCLINATION": 99.3979, "RA_OF_ASC_NODE": 64.5733, "ARG_OF_PERICENTER": 328.7354, "MEAN_ANOMALY": 58.116, "EPHEMERIS_TYPE": 0, "CLASSIFICATION_TYPE": "U", "NORAD_CAT_ID": 29986, "ELEMENT_SET_NO": 999, "REV_AT_EPOCH": 97642, "BSTAR": 0.0014122, "MEAN_MOTION_DOT": 3.553e-05, "MEAN_MOTION_DDOT": 0}, "tle": {"line1": "1 29986U 99025LL  25356.17428419  .00003553  00000+0  14122-2 0  9993", "line2": "2 29986  99.3979  64.5733 0022900 328.7354  58.1160 14.29284956976424"}}, "geometry": {"type": "Point", "coordinates": [-111.57290965197605, 10.225882882555045]}}, {"type": "Feature", "properties": {"norad_id": 29987, "name": "FENGYUN 1C DEB", "group": "fengyun-1c-debris", "lat": -61.42722769456057, "lon": 53.39108902638326, "alt_km": 808.4235352199003, "timestamp": "2025-12-24T03:53:29.920034+00:00", "meta": {"OBJECT_NAME": "FENGYUN 1C DEB", "OBJECT_ID": "1999-025LM", "EPOCH": "2025-12-23T05:17:07.709568", "MEAN_MOTION": 14.1463064, "ECCENTRICITY": 0.00786562, "INCLINATION": 98.8977, "RA_OF_ASC_NODE": 249.1698, "ARG_OF_PERICENTER": 203.0854, "MEAN_ANOMALY": 284.7428, "EPHEMERIS_TYPE": 0, "CLASSIFICATION_TYPE": "U", "NORAD_CAT_ID": 29987, "ELEMENT_SET_NO": 999, "REV_AT_EPOCH": 96521, "BSTAR": 0.0023690772, "MEAN_MOTION_DOT": 4.649e-05, "MEAN_MOTION_DDOT": 0}, "tle": {"line1": "1 29987U 99025LM  25357.22022812  .00004649  00000+0  23691-2 0  9996", "line2": "2 29987  98.8977 249.1698 0078656 203.0854 284.7428 14.14630640965215"}}, "geometry": {"type": "Point", "coordinates": [53.39108902638326, -61.42722769456057]}}, {"type": "Feature", "properties": {"norad_id": 29988, "name": "FENGYUN 1C DEB", "group": "fengyun-1c-debris", "lat": -62.9831251306524, "lon": 119.90726703688878, "alt_km": 673.1794662344837, "timestamp": "2025-12-24T03:53:29.920044+00:00", "meta": {"OBJECT_NAME": "FENGYUN 1C DEB", "OBJECT_ID": "1999-025LN", "EPOCH": "2025-12-23T19:00:01.925280", "MEAN_MOTION": 14.50509751, "ECCENTRICITY": 0.0120078, "INCLINATION": 98.6953, "RA_OF_ASC_NODE": 102.059, "ARG_OF_PERICENTER": 344.5587, "MEAN_ANOMALY": 178.8104, "EPHEMERIS_TYPE": 0, "CLASSIFICATION_TYPE": "U", "NORAD_CAT_ID": 29988, "ELEMENT_SET_NO": 999, "REV_AT_EPOCH": 98227, "BSTAR": 0.0014821, "MEAN_MOTION_DOT": 6.317e-05, "MEAN_MOTION_DDOT": 0}, "tle": {"line1": "1 29988U 99025LN  25357.79168895  .00006317  00000+0  14821-2 0  9990", "line2": "2 29988  98.6953 102.0590 0120078 344.5587 178.8104 14.50509751982273"}}, "geometry": {"type": "Point", "coordinates": [119.90726703688878, -62.9831251306524]}}, {"type": "Feature", "properties": {"norad_id": 29989, "name": "FENGYUN 1C DEB", "group": "fengyun-1c-debris", "lat": -52.97133904534623, "lon": 144.97550867632373, "alt_km": 816.1952920487329, "timestamp": "2025-12-24T03:53:29.920055+00:00", "meta": {"OBJECT_NAME": "FENGYUN 1C DEB", "OBJECT_ID": "1999-025LP", "EPOCH": "2025-12-23T17:27:06.617088", "MEAN_MOTION": 14.1582522, "ECCENTRICITY": 0.0123789, "INCLINATION": 98.6691, "RA_OF_ASC_NODE": 336.2209, "ARG_OF_PERICENTER": 164.1494, "MEAN_ANOMALY": 12.4035, "EPHEMERIS_TYPE": 0, "CLASSIFICATION_TYPE": "U", "NORAD_CAT_ID": 29989, "ELEMENT_SET_NO": 999, "REV_AT_EPOCH": 97766, "BSTAR": 0.00012431, "MEAN_MOTION_DOT": 2.21e-06, "MEAN_MOTION_DDOT": 0}, "tle": {"line1": "1 29989U 99025LP  25357.72715992  .00000221  00000+0  12431-3 0  9994", "line2": "2 29989  98.6691 336.2209 0123789 164.1494  12.4035 14.15825220977662"}}, "geometry": {"type": "Point", "coordinates": [144.97550867632373, -52.97133904534623]}}, {"type": "Feature", "properties": {"norad_id": 29992, "name": "FENGYUN 1C DEB", "group": "fengyun-1c-debris", "lat": -74.12800991905495, "lon": 25.701725946695433, "alt_km": 915.7794848627245, "timestamp": "2025-12-24T03:53:29.920065+00:00", "meta": {"OBJECT_NAME": "FENGYUN 1C DEB", "OBJECT_ID": "1999-025LS", "EPOCH": "2025-12-23T11:51:59.868288", "MEAN_MOTION": 14.11615099, "ECCENTRICITY": 0.0089379, "INCLINATION": 98.7305, "RA_OF_ASC_NODE": 352.3383, "ARG_OF_PERICENTER": 137.2666, "MEAN_ANOMALY": 354.2429, "EPHEMERIS_TYPE": 0, "CLASSIFICATION_TYPE": "U", "NORAD_CAT_ID": 29992, "ELEMENT_SET_NO": 999, "REV_AT_EPOCH": 97539, "BSTAR": 6.379e-05, "MEAN_MOTION_DOT": 7.8e-07, "MEAN_MOTION_DDOT": 0}, "tle": {"line1": "1 29992U 99025LS  25357.49444292  .00000078  00000+0  63790-4 0  9999", "line2": "2 29992  98.7305 352.3383 0089379 137.2666 354.2429 14.11615099975398"}}, "geometry": {"type": "Point", "coordinates": [25.701725946695433, -74.12800991905495]}}, {"type": "Feature", "properties": {"norad_id": 29993, "name": "FENGYUN 1C DEB", "group": "fengyun-1c-debris", "lat": 74.41143031386933, "lon": -111.7073647781994, "alt_km": 886.2720543436208, "timestamp": "2025-12-24T03:53:29.920076+00:00", "meta": {"OBJECT_NAME": "FENGYUN 1C DEB", "OBJECT_ID": "1999-025LT", "EPOCH": "2025-12-23T01:49:23.137536", "MEAN_MOTION": 14.08151849, "ECCENTRICITY": 0.00382339, "INCLINATION": 98.7919, "RA_OF_ASC_NODE": 33.5433, "ARG_OF_PERICENTER": 284.8898, "MEAN_ANOMALY": 74.8039, "EPHEMERIS_TYPE": 0, "CLASSIFICATION_TYPE": "U", "NORAD_CAT_ID": 29993, "ELEMENT_SET_NO": 999, "REV_AT_EPOCH": 97315, "BSTAR": 1.7799835e-05, "MEAN_MOTION_DOT": -1.3e-07, "MEAN_MOTION_DDOT": 0}, "tle": {"line1": "1 29993U 99025LT  25357.07596224 -.00000013  00000+0  17800-4 0  9998", "line2": "2 29993  98.7919  33.5433 0038233 284.8898  74.8039 14.08151849973151"}}, "geometry": {"type": "Point", "coordinates": [-111.7073647781994, 74.41143031386933]}}, {"type": "Feature", "properties": {"norad_id": 29994, "name": "FENGYUN 1C DEB", "group": "fengyun-1c-debris", "lat": 10.984395284435722, "lon": -148.21097782465006, "alt_km": 793.9397493882179, "timestamp": "2025-12-24T03:53:29.920086+00:00", "meta": {"OBJECT_NAME": "FENGYUN 1C DEB", "OBJECT_ID": "1999-025LU", "EPOCH": "2025-12-23T01:40:21.125280", "MEAN_MOTION": 14.026454, "ECCENTRICITY": 0.01299414, "INCLINATION": 98.8268, "RA_OF_ASC_NODE": 29.0018, "ARG_OF_PERICENTER": 184.7387, "MEAN_ANOMALY": 230.9915, "EPHEMERIS_TYPE": 0, "CLASSIFICATION_TYPE": "U", "NORAD_CAT_ID": 29994, "ELEMENT_SET_NO": 999, "REV_AT_EPOCH": 96871, "BSTAR": -2.0442939e-05, "MEAN_MOTION_DOT": -7.6e-07, "MEAN_MOTION_DDOT": 0}, "tle": {"line1": "1 29994U 99025LU  25357.06968895 -.00000076  00000+0 -20443-4 0  9992", "line2": "2 29994  98.8268  29.0018 0129941 184.7387 230.9915 14.02645400968716"}}, "geometry": {"type": "Point", "coordinates": [-148.21097782465006, 10.984395284435722]}}, {"type": "Feature", "properties": {"norad_id": 29996, "name": "FENGYUN 1C DEB", "group": "fengyun-1c-debris", "lat": -80.66214586829304, "lon": 130.49534794276533, "alt_km": 947.2711499294674, "timestamp": "2025-12-24T03:53:29.920096+00:00", "meta": {"OBJECT_NAME": "FENGYUN 1C DEB", "OBJECT_ID": "1999-025LW", "EPOCH": "2025-12-23T01:21:48.454848", "MEAN_MOTION": 14.0948239, "ECCENTRICITY": 0.01307469, "INCLINATION": 99.3028, "RA_OF_ASC_NODE": 34.7744, "ARG_OF_PERICENTER": 59.1389, "MEAN_ANOMALY": 5.3507, "EPHEMERIS_TYPE": 0, "CLASSIFICATION_TYPE": "U", "NORAD_CAT_ID": 29996, "ELEMENT_SET_NO": 999, "REV_AT_EPOCH": 96282, "BSTAR": 0.0019045618, "MEAN_MOTION_DOT": 3.557e-05, "MEAN_MOTION_DDOT": 0}, "tle": {"line1": "1 29996U 99025LW  25357.05681082  .00003557  00000+0  19046-2 0  9993", "line2": "2 29996  99.3028  34.7744 0130746  59.1389   5.3507 14.09482390962820"}}, "geometry": {"type": "Point", "coordinates": [130.49534794276533, -80.66214586829304]}}, {"type": "Feature", "properties": {"norad_id": 29997, "name": "FENGYUN 1C DEB", "group": "fengyun-1c-debris", "lat": -66.89988561741659, "lon": 29.802098991821758, "alt_km": 839.7667322241978, "timestamp": "2025-12-24T03:53:29.920107+00:00", "meta": {"OBJECT_NAME": "FENGYUN 1C DEB", "OBJECT_ID": "1999-025LX", "EPOCH": "2025-12-23T00:53:44.809152", "MEAN_MOTION": 14.00902823, "ECCENTRICITY": 0.00801251, "INCLINATION": 98.8825, "RA_OF_ASC_NODE": 7.2006, "ARG_OF_PERICENTER": 298.7015, "MEAN_ANOMALY": 83.1505, "EPHEMERIS_TYPE": 0, "CLASSIFICATION_TYPE": "U", "NORAD_CAT_ID": 29997, "ELEMENT_SET_NO": 999, "REV_AT_EPOCH": 96534, "BSTAR": 0.00076705513, "MEAN_MOTION_DOT": 1.136e-05, "MEAN_MOTION_DDOT": 0}, "tle": {"line1": "1 29997U 99025LX  25357.03732418  .00001136  00000+0  76706-3 0  9990", "line2": "2 29997  98.8825   7.2006 0080125 298.7015  83.1505 14.00902823965349"}}, "geometry": {"type": "Point", "coordinates": [29.802098991821758, -66.89988561741659]}}, {"type": "Feature", "properties": {"norad_id": 29998, "name": "FENGYUN 1C DEB", "group": "fengyun-1c-debris", "lat": -57.89160887133136, "lon": -135.8354624929783, "alt_km": 800.0363472857653, "timestamp": "2025-12-24T03:53:29.920117+00:00", "meta": {"OBJECT_NAME": "FENGYUN 1C DEB", "OBJECT_ID": "1999-025LY", "EPOCH": "2025-12-23T03:14:33.853056", "MEAN_MOTION": 14.28588277, "ECCENTRICITY": 0.00052568, "INCLINATION": 99.3054, "RA_OF_ASC_NODE": 58.2165, "ARG_OF_PERICENTER": 265.8572, "MEAN_ANOMALY": 94.2006, "EPHEMERIS_TYPE": 0, "CLASSIFICATION_TYPE": "U", "NORAD_CAT_ID": 29998, "ELEMENT_SET_NO": 999, "REV_AT_EPOCH": 98023, "BSTAR": 0.00082396527, "MEAN_MOTION_DOT": 2.019e-05, "MEAN_MOTION_DDOT": 0}, "tle": {"line1": "1 29998U 99025LY  25357.13511404  .00002019  00000+0  82397-3 0  9996", "line2": "2 29998  99.3054  58.2165 0005256 265.8572  94.2006 14.28588277980234"}}, "geometry": {"type": "Point", "coordinates": [-135.8354624929783, -57.89160887133136]}}]}